TWILIGHT R              
1 67378U 26004R   26022.91668981  .00051403  00000+0  56148-2 0  9991
2 67378  97.7972  23.8924 0003575 254.3384 122.4166 14.87651851  2012
TWILIGHT S              
1 67379U 26004S   26022.91668981  .00051165  00000+0  55875-2 0  9993
2 67379  97.7977  23.8939 0004045 248.8601 128.3992 14.87662083  2614
TWILIGHT T              
1 67380U 26004T   26022.91668981  .00051966  00000+0  56599-2 0  9998
2 67380  97.7969  23.8947 0003537 248.6607 132.1043 14.87766541  2619
TWILIGHT U              
1 67381U 26004U   26022.91668981  .00051553  00000+0  55978-2 0  9991
2 67381  97.8006  23.9007 0003758 235.7177 150.5843 14.87892930  2822
TWILIGHT V              
1 67382U 26004V   26022.91668981  .00051164  00000+0  55475-2 0  9992
2 67382  97.7997  23.8997 0003324 230.6659 158.2713 14.87955726  2763
TWILIGHT W              
1 67383U 26004W   26022.64434826  .00002725  00000+0  30513-3 0  9998
2 67383  97.7973  23.6255 0003847 250.1072 109.9730 14.87686984  1644
TWILIGHT X              
1 67384U 26004X   26022.50728975  .00007722  00000+0  84461-3 0  9998
2 67384  97.7972  23.4965 0002703 234.3745 125.7221 14.88099102  1621
TWILIGHT Y              
1 67385U 26004Y   26022.50666717  .00007455  00000+0  81399-3 0  9994
2 67385  97.7983  23.4978 0002583 226.0626 134.0378 14.88184402  1624
TWILIGHT Z              
1 67386U 26004Z   26022.43824705  .00002420  00000+0  26778-3 0  9997
2 67386  97.7962  23.4335 0001473 224.6393 135.4706 14.88277483  1612
TWILIGHT AA             
1 67387U 26004AA  26022.43663990  .00005062  00000+0  54991-3 0  9998
2 67387  97.8014  23.4352 0002541 181.8481 178.2727 14.88541024  1613
TWILIGHT AB             
1 67388U 26004AB  26022.50287953  .00003584  00000+0  39011-3 0  9991
2 67388  97.8003  23.5026 0002205 164.1574 195.9713 14.88650917  1629
TWILIGHT AC             
1 67389U 26004AC  26022.49902436  .00007371  00000+0  37675-3 0  9992
2 67389  97.4560  23.6935 0005027 113.4784 246.6978 15.16950267  1652
