CCSDS_OMM_VERS = 2.0
CREATION_DATE  = 
ORIGINATOR     = 

OBJECT_NAME    = TWILIGHT R
OBJECT_ID      = 2026-004R
CENTER_NAME    = EARTH
REF_FRAME      = TEME
TIME_SYSTEM    = UTC
MEAN_ELEMENT_THEORY = SGP/SGP4

EPOCH          = 2026-01-22T22:00:01.999584
MEAN_MOTION    = 14.87651851
ECCENTRICITY   = .00035759
INCLINATION    = 97.7972
RA_OF_ASC_NODE = 23.8924
ARG_OF_PERICENTER = 254.3384
MEAN_ANOMALY   = 122.4166

EPHEMERIS_TYPE = 0
CLASSIFICATION_TYPE = U
NORAD_CAT_ID   = 67378
ELEMENT_SET_NO = 999
REV_AT_EPOCH   = 201
BSTAR          = .56148245E-2
MEAN_MOTION_DOT = .51403E-3
MEAN_MOTION_DDOT = 0

CCSDS_OMM_VERS = 2.0
CREATION_DATE  = 
ORIGINATOR     = 

OBJECT_NAME    = TWILIGHT S
OBJECT_ID      = 2026-004S
CENTER_NAME    = EARTH
REF_FRAME      = TEME
TIME_SYSTEM    = UTC
MEAN_ELEMENT_THEORY = SGP/SGP4

EPOCH          = 2026-01-22T22:00:01.999584
MEAN_MOTION    = 14.87662083
ECCENTRICITY   = .00040459
INCLINATION    = 97.7977
RA_OF_ASC_NODE = 23.8939
ARG_OF_PERICENTER = 248.8601
MEAN_ANOMALY   = 128.3992

EPHEMERIS_TYPE = 0
CLASSIFICATION_TYPE = U
NORAD_CAT_ID   = 67379
ELEMENT_SET_NO = 999
REV_AT_EPOCH   = 261
BSTAR          = .55875019E-2
MEAN_MOTION_DOT = .51165E-3
MEAN_MOTION_DDOT = 0

CCSDS_OMM_VERS = 2.0
CREATION_DATE  = 
ORIGINATOR     = 

OBJECT_NAME    = TWILIGHT T
OBJECT_ID      = 2026-004T
CENTER_NAME    = EARTH
REF_FRAME      = TEME
TIME_SYSTEM    = UTC
MEAN_ELEMENT_THEORY = SGP/SGP4

EPOCH          = 2026-01-22T22:00:01.999584
MEAN_MOTION    = 14.87766541
ECCENTRICITY   = .00035375
INCLINATION    = 97.7969
RA_OF_ASC_NODE = 23.8947
ARG_OF_PERICENTER = 248.6607
MEAN_ANOMALY   = 132.1043

EPHEMERIS_TYPE = 0
CLASSIFICATION_TYPE = U
NORAD_CAT_ID   = 67380
ELEMENT_SET_NO = 999
REV_AT_EPOCH   = 261
BSTAR          = .56598923E-2
MEAN_MOTION_DOT = .51966E-3
MEAN_MOTION_DDOT = 0

CCSDS_OMM_VERS = 2.0
CREATION_DATE  = 
ORIGINATOR     = 

OBJECT_NAME    = TWILIGHT U
OBJECT_ID      = 2026-004U
CENTER_NAME    = EARTH
REF_FRAME      = TEME
TIME_SYSTEM    = UTC
MEAN_ELEMENT_THEORY = SGP/SGP4

EPOCH          = 2026-01-22T22:00:01.999584
MEAN_MOTION    = 14.87892930
ECCENTRICITY   = .00037582
INCLINATION    = 97.8006
RA_OF_ASC_NODE = 23.9007
ARG_OF_PERICENTER = 235.7177
MEAN_ANOMALY   = 150.5843

EPHEMERIS_TYPE = 0
CLASSIFICATION_TYPE = U
NORAD_CAT_ID   = 67381
ELEMENT_SET_NO = 999
REV_AT_EPOCH   = 282
BSTAR          = .55978197E-2
MEAN_MOTION_DOT = .51553E-3
MEAN_MOTION_DDOT = 0

CCSDS_OMM_VERS = 2.0
CREATION_DATE  = 
ORIGINATOR     = 

OBJECT_NAME    = TWILIGHT V
OBJECT_ID      = 2026-004V
CENTER_NAME    = EARTH
REF_FRAME      = TEME
TIME_SYSTEM    = UTC
MEAN_ELEMENT_THEORY = SGP/SGP4

EPOCH          = 2026-01-22T22:00:01.999584
MEAN_MOTION    = 14.87955726
ECCENTRICITY   = .00033241
INCLINATION    = 97.7997
RA_OF_ASC_NODE = 23.8997
ARG_OF_PERICENTER = 230.6659
MEAN_ANOMALY   = 158.2713

EPHEMERIS_TYPE = 0
CLASSIFICATION_TYPE = U
NORAD_CAT_ID   = 67382
ELEMENT_SET_NO = 999
REV_AT_EPOCH   = 276
BSTAR          = .55475126E-2
MEAN_MOTION_DOT = .51164E-3
MEAN_MOTION_DDOT = 0

CCSDS_OMM_VERS = 2.0
CREATION_DATE  = 
ORIGINATOR     = 

OBJECT_NAME    = TWILIGHT W
OBJECT_ID      = 2026-004W
CENTER_NAME    = EARTH
REF_FRAME      = TEME
TIME_SYSTEM    = UTC
MEAN_ELEMENT_THEORY = SGP/SGP4

EPOCH          = 2026-01-22T15:27:51.689664
MEAN_MOTION    = 14.87686984
ECCENTRICITY   = .0003847
INCLINATION    = 97.7973
RA_OF_ASC_NODE = 23.6255
ARG_OF_PERICENTER = 250.1072
MEAN_ANOMALY   = 109.9730

EPHEMERIS_TYPE = 0
CLASSIFICATION_TYPE = U
NORAD_CAT_ID   = 67383
ELEMENT_SET_NO = 999
REV_AT_EPOCH   = 164
BSTAR          = .30513054E-3
MEAN_MOTION_DOT = .2725E-4
MEAN_MOTION_DDOT = 0

CCSDS_OMM_VERS = 2.0
CREATION_DATE  = 
ORIGINATOR     = 

OBJECT_NAME    = TWILIGHT X
OBJECT_ID      = 2026-004X
CENTER_NAME    = EARTH
REF_FRAME      = TEME
TIME_SYSTEM    = UTC
MEAN_ELEMENT_THEORY = SGP/SGP4

EPOCH          = 2026-01-22T12:10:29.834400
MEAN_MOTION    = 14.88099102
ECCENTRICITY   = .00027038
INCLINATION    = 97.7972
RA_OF_ASC_NODE = 23.4965
ARG_OF_PERICENTER = 234.3745
MEAN_ANOMALY   = 125.7221

EPHEMERIS_TYPE = 0
CLASSIFICATION_TYPE = U
NORAD_CAT_ID   = 67384
ELEMENT_SET_NO = 999
REV_AT_EPOCH   = 162
BSTAR          = .84460559E-3
MEAN_MOTION_DOT = .7722E-4
MEAN_MOTION_DDOT = 0

CCSDS_OMM_VERS = 2.0
CREATION_DATE  = 
ORIGINATOR     = 

OBJECT_NAME    = TWILIGHT Y
OBJECT_ID      = 2026-004Y
CENTER_NAME    = EARTH
REF_FRAME      = TEME
TIME_SYSTEM    = UTC
MEAN_ELEMENT_THEORY = SGP/SGP4

EPOCH          = 2026-01-22T12:09:36.043488
MEAN_MOTION    = 14.88184402
ECCENTRICITY   = .00025831
INCLINATION    = 97.7983
RA_OF_ASC_NODE = 23.4978
ARG_OF_PERICENTER = 226.0626
MEAN_ANOMALY   = 134.0378

EPHEMERIS_TYPE = 0
CLASSIFICATION_TYPE = U
NORAD_CAT_ID   = 67385
ELEMENT_SET_NO = 999
REV_AT_EPOCH   = 162
BSTAR          = .81398921E-3
MEAN_MOTION_DOT = .7455E-4
MEAN_MOTION_DDOT = 0

CCSDS_OMM_VERS = 2.0
CREATION_DATE  = 
ORIGINATOR     = 

OBJECT_NAME    = TWILIGHT Z
OBJECT_ID      = 2026-004Z
CENTER_NAME    = EARTH
REF_FRAME      = TEME
TIME_SYSTEM    = UTC
MEAN_ELEMENT_THEORY = SGP/SGP4

EPOCH          = 2026-01-22T10:31:04.545120
MEAN_MOTION    = 14.88277483
ECCENTRICITY   = .00014736
INCLINATION    = 97.7962
RA_OF_ASC_NODE = 23.4335
ARG_OF_PERICENTER = 224.6393
MEAN_ANOMALY   = 135.4706

EPHEMERIS_TYPE = 0
CLASSIFICATION_TYPE = U
NORAD_CAT_ID   = 67386
ELEMENT_SET_NO = 999
REV_AT_EPOCH   = 161
BSTAR          = .26777773E-3
MEAN_MOTION_DOT = .242E-4
MEAN_MOTION_DDOT = 0

CCSDS_OMM_VERS = 2.0
CREATION_DATE  = 
ORIGINATOR     = 

OBJECT_NAME    = TWILIGHT AA
OBJECT_ID      = 2026-004AA
CENTER_NAME    = EARTH
REF_FRAME      = TEME
TIME_SYSTEM    = UTC
MEAN_ELEMENT_THEORY = SGP/SGP4

EPOCH          = 2026-01-22T10:28:45.687360
MEAN_MOTION    = 14.88541024
ECCENTRICITY   = .00025419
INCLINATION    = 97.8014
RA_OF_ASC_NODE = 23.4352
ARG_OF_PERICENTER = 181.8481
MEAN_ANOMALY   = 178.2727

EPHEMERIS_TYPE = 0
CLASSIFICATION_TYPE = U
NORAD_CAT_ID   = 67387
ELEMENT_SET_NO = 999
REV_AT_EPOCH   = 161
BSTAR          = .54991382E-3
MEAN_MOTION_DOT = .5062E-4
MEAN_MOTION_DDOT = 0

CCSDS_OMM_VERS = 2.0
CREATION_DATE  = 
ORIGINATOR     = 

OBJECT_NAME    = TWILIGHT AB
OBJECT_ID      = 2026-004AB
CENTER_NAME    = EARTH
REF_FRAME      = TEME
TIME_SYSTEM    = UTC
MEAN_ELEMENT_THEORY = SGP/SGP4

EPOCH          = 2026-01-22T12:04:08.791392
MEAN_MOTION    = 14.88650917
ECCENTRICITY   = .0002205
INCLINATION    = 97.8003
RA_OF_ASC_NODE = 23.5026
ARG_OF_PERICENTER = 164.1574
MEAN_ANOMALY   = 195.9713

EPHEMERIS_TYPE = 0
CLASSIFICATION_TYPE = U
NORAD_CAT_ID   = 67388
ELEMENT_SET_NO = 999
REV_AT_EPOCH   = 162
BSTAR          = .39011427E-3
MEAN_MOTION_DOT = .3584E-4
MEAN_MOTION_DDOT = 0

CCSDS_OMM_VERS = 2.0
CREATION_DATE  = 
ORIGINATOR     = 

OBJECT_NAME    = TWILIGHT AC
OBJECT_ID      = 2026-004AC
CENTER_NAME    = EARTH
REF_FRAME      = TEME
TIME_SYSTEM    = UTC
MEAN_ELEMENT_THEORY = SGP/SGP4

EPOCH          = 2026-01-22T11:58:35.704704
MEAN_MOTION    = 15.16950267
ECCENTRICITY   = .00050275
INCLINATION    = 97.4560
RA_OF_ASC_NODE = 23.6935
ARG_OF_PERICENTER = 113.4784
MEAN_ANOMALY   = 246.6978

EPHEMERIS_TYPE = 0
CLASSIFICATION_TYPE = U
NORAD_CAT_ID   = 67389
ELEMENT_SET_NO = 999
REV_AT_EPOCH   = 165
BSTAR          = .37674936E-3
MEAN_MOTION_DOT = .7371E-4
MEAN_MOTION_DDOT = 0

